[{"OBJECT_NAME":"WNISAT 1R","OBJECT_ID":"2017-042L","EPOCH":"2026-03-09T20:41:10.613760","MEAN_MOTION":15.01153186,"ECCENTRICITY":0.00133015,"INCLINATION":97.4515,"RA_OF_ASC_NODE":228.7079,"ARG_OF_PERICENTER":131.3338,"MEAN_ANOMALY":228.9034,"EPHEMERIS_TYPE":0,"CLASSIFICATION_TYPE":"U","NORAD_CAT_ID":42835,"ELEMENT_SET_NO":999,"REV_AT_EPOCH":47160,"BSTAR":0.00037839839,"MEAN_MOTION_DOT":4.802e-5,"MEAN_MOTION_DDOT":0},{"OBJECT_NAME":"STARLINK-6113","OBJECT_ID":"2023-046W","EPOCH":"2026-03-09T22:26:20.343552","MEAN_MOTION":15.02535048,"ECCENTRICITY":0.00014204,"INCLINATION":43.0033,"RA_OF_ASC_NODE":157.2072,"ARG_OF_PERICENTER":260.7518,"MEAN_ANOMALY":99.3164,"EPHEMERIS_TYPE":0,"CLASSIFICATION_TYPE":"U","NORAD_CAT_ID":56113,"ELEMENT_SET_NO":999,"REV_AT_EPOCH":16210,"BSTAR":7.014319e-6,"MEAN_MOTION_DOT":-1.09e-6,"MEAN_MOTION_DDOT":0}]
